GLOBALSTAR M075 [+]     
1 37192U 10054E   23276.72254111 -.00000098  00000+0  32554-4 0  9995
2 37192  51.9935 276.8075 0000489  53.3513 117.5980 12.62261844597392
GLOBALSTAR M073 [+]     
1 37193U 10054F   23276.93980899 -.00000068  00000+0  19961-3 0  9991
2 37193  52.0052 189.4887 0000713  67.6183  11.4437 12.62267938599252
GLOBALSTAR M083 [+]     
1 37739U 11033A   23276.95890235 -.00000086  00000+0  10055-3 0  9996
2 37739  51.9841 139.0108 0000582  69.6005  37.5825 12.62269713568279
GLOBALSTAR M088 [+]     
1 37740U 11033B   23276.67450450 -.00000108  00000+0 -25995-4 0  9994
2 37740  51.9748  45.8902 0000557  78.6333 294.9185 12.62265868563785
GLOBALSTAR M091 [+]     
1 37741U 11033C   23276.46529292 -.00000094  00000+0  54329-4 0  9999
2 37741  52.0025   8.9713 0000419  73.3063   8.3977 12.62266583564541
GLOBALSTAR M085 [+]     
1 37742U 11033D   23276.43689799 -.00000084  00000+0  11249-3 0  9998
2 37742  51.9879 320.6496 0000274  62.2785 311.1664 12.62263303565058
GLOBALSTAR M081 [+]     
1 37743U 11033E   23276.46325473 -.00000075  00000+0  16071-3 0  9996
2 37743  51.9971 322.9722 0000480  54.7183 318.3841 12.62264911565205
GLOBALSTAR M089 [+]     
1 37744U 11033F   23276.26607284 -.00000084  00000+0  11246-3 0  9997
2 37744  51.9918 277.9173 0000651  85.2819 290.9584 12.62267687566024
